[{"OBJECT_NAME":"NORSAT 2","OBJECT_ID":"2017-042D","EPOCH":"2026-03-09T22:36:44.019360","MEAN_MOTION":15.19710516,"ECCENTRICITY":0.00104189,"INCLINATION":97.3979,"RA_OF_ASC_NODE":244.1384,"ARG_OF_PERICENTER":44.3971,"MEAN_ANOMALY":315.8097,"EPHEMERIS_TYPE":0,"CLASSIFICATION_TYPE":"U","NORAD_CAT_ID":42828,"ELEMENT_SET_NO":999,"REV_AT_EPOCH":47265,"BSTAR":0.00070065492,"MEAN_MOTION_DOT":0.00014937,"MEAN_MOTION_DDOT":0},{"OBJECT_NAME":"BLACKJACK ACES-2","OBJECT_ID":"2023-084Z","EPOCH":"2026-03-09T22:41:57.112224","MEAN_MOTION":15.20437873,"ECCENTRICITY":5.883e-5,"INCLINATION":97.6035,"RA_OF_ASC_NODE":203.5392,"ARG_OF_PERICENTER":31.4555,"MEAN_ANOMALY":328.6715,"EPHEMERIS_TYPE":0,"CLASSIFICATION_TYPE":"U","NORAD_CAT_ID":56955,"ELEMENT_SET_NO":999,"REV_AT_EPOCH":15211,"BSTAR":0.00051478919,"MEAN_MOTION_DOT":0.00011167,"MEAN_MOTION_DDOT":0}]
