NORSAT 2                
1 42828U 17042D   26068.94217615  .00014937  00000+0  70065-3 0  9999
2 42828  97.3979 244.1384 0010418  44.3971 315.8097 15.19710516472651
BLACKJACK ACES-2        
1 56955U 23084Z   26068.94579991  .00011167  00000+0  51479-3 0  9996
2 56955  97.6035 203.5392 0000588  31.4555 328.6715 15.20437873152112
